[
    {
        "Altitude(m)": 604969.0890538152,
        "Argument of Periapsis(deg)": 0.0,
        "Eccentricity": 0.0,
        "Inclination(deg)": 60.0,
        "Latitude(deg)": -0.09259178703337914,
        "Longitude(deg)": 159.9775274708234,
        "Mean Anomaly(deg)": 0.0,
        "RAAN(deg)": 260.0,
        "Satellite Name": "Test1 1144",
        "Satellite Number": 1144,
        "Semi-Major Axis(m)": 6980739.136638005,
        "Time(s)": 0
    },
    {
        "Altitude(m)": 604900.0290294415,
        "Argument of Periapsis(deg)": 0.00010418945913296404,
        "Eccentricity": 0.0,
        "Inclination(deg)": 60.0,
        "Latitude(deg)": 0.44783371436371905,
        "Longitude(deg)": 160.24565128515246,
        "Mean Anomaly(deg)": 0.620106145461853,
        "RAAN(deg)": 259.99957995086027,
        "Satellite Name": "Test1 1144",
        "Satellite Number": 1144,
        "Semi-Major Axis(m)": 6980739.136638005,
        "Time(s)": 10
    }
]